{
  "norad_id": 40001,
  "name": "COSMOS 2500 [GLONASS-M]",
  "history": [
    {
      "epoch": "2026-03-28T19:06:51.657408",
      "apogee_km": 19142.551278974304,
      "perigee_km": 19116.609930170456,
      "latitude_deg": -37.98019746173718,
      "longitude_deg": 56.55739712016657,
      "semi_major_axis_km": 25507.71760457238,
      "eccentricity": 0.0005085,
      "inclination_deg": 65.2784,
      "raan_deg": 316.4234,
      "arg_perigee_deg": 189.868,
      "mean_anomaly_deg": 170.1778,
      "mean_motion_rev_day": 2.13105845
    },
    {
      "epoch": "2026-03-28T19:06:51.677280",
      "apogee_km": 19142.541366115685,
      "perigee_km": 19116.62399245835,
      "latitude_deg": -37.97988571904306,
      "longitude_deg": 56.55741919996217,
      "semi_major_axis_km": 25507.719679287016,
      "eccentricity": 0.00050803,
      "inclination_deg": 65.2782,
      "raan_deg": 316.4236,
      "arg_perigee_deg": 190.1719,
      "mean_anomaly_deg": 169.8736,
      "mean_motion_rev_day": 2.13105819
    }
  ]
}